OBJECT_NAME,OBJECT_ID,EPOCH,MEAN_MOTION,ECCENTRICITY,INCLINATION,RA_OF_ASC_NODE,ARG_OF_PERICENTER,MEAN_ANOMALY,EPHEMERIS_TYPE,CLASSIFICATION_TYPE,NORAD_CAT_ID,ELEMENT_SET_NO,REV_AT_EPOCH,BSTAR,MEAN_MOTION_DOT,MEAN_MOTION_DDOT
ONEWEB-0130,2020-100U,2026-07-08T22:01:08.746176,13.12442103,.00018258,87.8952,346.3329,92.2170,267.9167,0,U,47276,999,26749,-.84081462E-3,-.29E-5,0
ONEWEB-0131,2020-100V,2026-07-08T21:56:16.110240,13.12441534,.00017618,87.8953,346.3483,100.1922,259.9406,0,U,47277,999,26753,-.78846901E-3,-.271E-5,0
ONEWEB-0132,2020-100W,2026-07-08T22:37:44.234976,13.12443439,.00018169,87.8956,346.3449,97.2124,262.9211,0,U,47278,999,26743,-.17828103E-4,.6E-7,0
ONEWEB-0133,2020-100X,2026-07-08T21:12:09.394848,13.12444368,.00017877,87.8965,346.3352,99.0721,261.0610,0,U,47279,999,26758,.16216321E-2,.596E-5,0
ONEWEB-0134,2020-100Y,2026-07-08T22:18:12.872160,13.12442692,.0001962,87.8965,346.3233,102.6614,257.4734,0,U,47280,999,26756,-.99914843E-3,-.347E-5,0
ONEWEB-0135,2020-100Z,2026-07-08T19:46:58.190304,13.12441869,.0001886,87.8952,346.3640,105.6652,254.4685,0,U,47281,999,26757,.3124641E-3,.125E-5,0
ONEWEB-0136,2020-100AA,2026-07-08T22:03:34.678368,13.12442256,.00019267,87.8957,346.3290,102.2606,257.8738,0,U,47282,999,26751,-.98210061E-3,-.341E-5,0
ONEWEB-0137,2020-100AB,2026-07-08T21:02:36.050496,13.12443848,.00018614,87.8966,346.3479,91.2320,268.9022,0,U,47283,999,26741,.87145801E-3,.326E-5,0
ONEWEB-0138,2020-100AC,2026-07-08T22:20:39.569856,13.12443097,.00019925,87.8961,346.3421,100.5292,259.6061,0,U,47284,999,26750,-.92357671E-3,-.32E-5,0
ONEWEB-0139,2020-100AD,2026-07-08T19:39:51.897024,13.12441195,.00019025,87.8961,346.3496,95.1146,265.0200,0,U,47285,999,26756,.75772624E-3,.285E-5,0
ONEWEB-0140,2020-100AE,2026-07-08T22:13:20.259552,13.12442523,.0001671,87.8958,346.3213,97.8343,262.2975,0,U,47286,999,26754,-.11659758E-2,-.407E-5,0
ONEWEB-0141,2020-100AF,2026-07-08T19:39:27.320544,13.12441651,.00019658,87.8963,346.3459,88.7198,271.4156,0,U,47287,999,26751,.79473741E-3,.299E-5,0
ONEWEB-0142,2020-100AG,2026-07-08T21:12:34.157088,13.12444161,.00022351,87.8955,346.3536,90.8727,269.2658,0,U,47288,999,26751,.11983733E-2,.444E-5,0
ONEWEB-0143,2020-100AH,2026-07-08T21:26:59.947296,13.12442235,.00018267,87.8955,346.3515,93.0432,267.0906,0,U,47289,999,26749,.10168026E-2,.379E-5,0
ONEWEB-0144,2020-100AJ,2026-07-08T22:35:18.099744,13.12443408,.00021968,87.8964,346.3172,100.0636,260.0740,0,U,47290,999,26742,-.6255268E-4,-.1E-6,0
ONEWEB-0145,2020-100AK,2026-07-08T20:04:02.584992,13.12441844,.00019355,87.8956,346.3631,96.1029,264.0320,0,U,47291,999,26760,-.70861954E-3,-.242E-5,0
ONEWEB-0146,2020-100AL,2026-07-08T19:59:10.012128,13.12442036,.00014699,87.8966,346.3575,94.2231,265.9065,0,U,47292,999,26751,-.20694377E-3,-.62E-6,0
ONEWEB-0147,2020-100AM,2026-07-08T21:00:09.825408,13.12444218,.00018286,87.8962,346.3309,100.5491,259.5844,0,U,47293,999,26741,.81972693E-3,.308E-5,0
ONEWEB-0115,2021-025A,2026-07-08T19:26:35.975904,13.13477212,.00018759,87.8977,315.9201,99.3811,260.7530,0,U,48042,999,25643,-.26953463E-2,-.972E-5,0
ONEWEB-0152,2021-025B,2026-07-08T21:35:49.782336,13.13458481,.00023484,87.9017,315.8989,167.2409,192.8780,0,U,48043,999,25640,-.45916468E-2,-.1663E-4,0
ONEWEB-0153,2021-025C,2026-07-08T21:04:07.405536,13.13469154,.00019742,87.8975,315.9052,96.1877,263.9477,0,U,48044,999,25639,.95804542E-3,.363E-5,0
ONEWEB-0154,2021-025D,2026-07-08T20:59:15.170496,13.13469687,.00018697,87.8977,315.9056,106.9109,253.2225,0,U,48045,999,25635,.76382387E-3,.292E-5,0
ONEWEB-0116,2021-025E,2026-07-08T21:55:18.655104,13.13469338,.00018105,87.8986,315.8942,102.3343,257.7989,0,U,48046,999,25650,-.1008411E-2,-.355E-5,0
ONEWEB-0150,2021-025F,2026-07-08T21:21:11.696544,13.13468989,.00018956,87.8988,315.8955,95.3896,264.7449,0,U,48047,999,25639,.59548069E-3,.23E-5,0
ONEWEB-0107,2021-025G,2026-07-08T21:23:38.921280,13.13471336,.00021133,87.8985,315.8921,101.9762,258.1604,0,U,48048,999,25637,.46072914E-3,.181E-5,0
ONEWEB-0101,2021-025H,2026-07-08T20:30:00.098784,13.13471111,.00020383,87.8964,315.9140,103.7548,256.3808,0,U,48049,999,25634,-.16267905E-3,-.47E-6,0
ONEWEB-0113,2021-025J,2026-07-08T20:55:02.308800,13.13891930,.00018479,87.8970,315.8186,98.6633,261.4706,0,U,48050,999,25645,.65145212E-3,.252E-5,0
ONEWEB-0112,2021-025K,2026-07-08T21:30:56.378304,13.13468588,.00021174,87.8983,315.8896,105.1287,255.0076,0,U,48051,999,25644,.80528411E-4,.42E-6,0
ONEWEB-0156,2021-025L,2026-07-08T21:43:07.749984,13.13471502,.00020087,87.8985,315.8972,98.6939,261.4417,0,U,48052,999,25642,-.64082532E-3,-.221E-5,0
ONEWEB-0161,2021-025M,2026-07-08T21:06:33.544224,13.13469090,.00020745,87.8981,315.9036,96.7702,263.3664,0,U,48053,999,25635,.10112859E-2,.382E-5,0
