ONEWEB-0130             
1 47276U 20100U   26189.91746234 -.00000290  00000+0 -84081-3 0  9997
2 47276  87.8952 346.3329 0001825  92.2170 267.9167 13.12442103267491
ONEWEB-0131             
1 47277U 20100V   26189.91407535 -.00000271  00000+0 -78847-3 0  9998
2 47277  87.8953 346.3483 0001761 100.1922 259.9406 13.12441534267536
ONEWEB-0132             
1 47278U 20100W   26189.94287309  .00000006  00000+0 -17828-4 0  9995
2 47278  87.8956 346.3449 0001816  97.2124 262.9211 13.12443439267436
ONEWEB-0133             
1 47279U 20100X   26189.88344207  .00000596  00000+0  16216-2 0  9991
2 47279  87.8965 346.3352 0001787  99.0721 261.0610 13.12444368267581
ONEWEB-0134             
1 47280U 20100Y   26189.92931565 -.00000347  00000+0 -99915-3 0  9991
2 47280  87.8965 346.3233 0001962 102.6614 257.4734 13.12442692267560
ONEWEB-0135             
1 47281U 20100Z   26189.82428461  .00000125  00000+0  31246-3 0  9992
2 47281  87.8952 346.3640 0001886 105.6652 254.4685 13.12441869267577
ONEWEB-0136             
1 47282U 20100AA  26189.91915137 -.00000341  00000+0 -98210-3 0  9990
2 47282  87.8957 346.3290 0001926 102.2606 257.8738 13.12442256267512
ONEWEB-0137             
1 47283U 20100AB  26189.87680614  .00000326  00000+0  87146-3 0  9992
2 47283  87.8966 346.3479 0001861  91.2320 268.9022 13.12443848267416
ONEWEB-0138             
1 47284U 20100AC  26189.93101354 -.00000320  00000+0 -92358-3 0  9996
2 47284  87.8961 346.3421 0001992 100.5292 259.6061 13.12443097267502
ONEWEB-0139             
1 47285U 20100AD  26189.81935066  .00000285  00000+0  75773-3 0  9999
2 47285  87.8961 346.3496 0001902  95.1146 265.0200 13.12441195267562
ONEWEB-0140             
1 47286U 20100AE  26189.92592893 -.00000407  00000+0 -11660-2 0  9991
2 47286  87.8958 346.3213 0001671  97.8343 262.2975 13.12442523267549
ONEWEB-0141             
1 47287U 20100AF  26189.81906621  .00000299  00000+0  79474-3 0  9993
2 47287  87.8963 346.3459 0001965  88.7198 271.4156 13.12441651267512
ONEWEB-0142             
1 47288U 20100AG  26189.88372867  .00000444  00000+0  11984-2 0  9993
2 47288  87.8955 346.3536 0002235  90.8727 269.2658 13.12444161267514
ONEWEB-0143             
1 47289U 20100AH  26189.89374939  .00000379  00000+0  10168-2 0  9997
2 47289  87.8955 346.3515 0001826  93.0432 267.0906 13.12442235267494
ONEWEB-0144             
1 47290U 20100AJ  26189.94118171 -.00000010  00000+0 -62553-4 0  9990
2 47290  87.8964 346.3172 0002196 100.0636 260.0740 13.12443408267426
ONEWEB-0145             
1 47291U 20100AK  26189.83614103 -.00000242  00000+0 -70862-3 0  9993
2 47291  87.8956 346.3631 0001935  96.1029 264.0320 13.12441844267609
ONEWEB-0146             
1 47292U 20100AL  26189.83275477 -.00000062  00000+0 -20694-3 0  9999
2 47292  87.8966 346.3575 0001469  94.2231 265.9065 13.12442036267514
ONEWEB-0147             
1 47293U 20100AM  26189.87511372  .00000308  00000+0  81973-3 0  9999
2 47293  87.8962 346.3309 0001828 100.5491 259.5844 13.12444218267411
ONEWEB-0115             
1 48042U 21025A   26189.81013861 -.00000972  00000+0 -26953-2 0  9998
2 48042  87.8977 315.9201 0001875  99.3811 260.7530 13.13477212256433
ONEWEB-0152             
1 48043U 21025B   26189.89988174 -.00001663  00000+0 -45916-2 0  9993
2 48043  87.9017 315.8989 0002348 167.2409 192.8780 13.13458481256402
ONEWEB-0153             
1 48044U 21025C   26189.87786349  .00000363  00000+0  95805-3 0  9999
2 48044  87.8975 315.9052 0001974  96.1877 263.9477 13.13469154256390
ONEWEB-0154             
1 48045U 21025D   26189.87448114  .00000292  00000+0  76382-3 0  9995
2 48045  87.8977 315.9056 0001869 106.9109 253.2225 13.13469687256358
ONEWEB-0116             
1 48046U 21025E   26189.91341036 -.00000355  00000+0 -10084-2 0  9994
2 48046  87.8986 315.8942 0001810 102.3343 257.7989 13.13469338256504
ONEWEB-0150             
1 48047U 21025F   26189.88971871  .00000230  00000+0  59548-3 0  9996
2 48047  87.8988 315.8955 0001895  95.3896 264.7449 13.13468989256395
ONEWEB-0107             
1 48048U 21025G   26189.89142270  .00000181  00000+0  46073-3 0  9995
2 48048  87.8985 315.8921 0002113 101.9762 258.1604 13.13471336256374
ONEWEB-0101             
1 48049U 21025H   26189.85416781 -.00000047  00000+0 -16268-3 0  9999
2 48049  87.8964 315.9140 0002038 103.7548 256.3808 13.13471111256348
ONEWEB-0113             
1 48050U 21025J   26189.87155450  .00000252  00000+0  65145-3 0  9990
2 48050  87.8970 315.8186 0001847  98.6633 261.4706 13.13891930256451
ONEWEB-0112             
1 48051U 21025K   26189.89648586  .00000042  00000+0  80528-4 0  9990
2 48051  87.8983 315.8896 0002117 105.1287 255.0076 13.13468588256441
ONEWEB-0156             
1 48052U 21025L   26189.90495081 -.00000221  00000+0 -64083-3 0  9991
2 48052  87.8985 315.8972 0002008  98.6939 261.4417 13.13471502256426
ONEWEB-0161             
1 48053U 21025M   26189.87955491  .00000382  00000+0  10113-2 0  9994
2 48053  87.8981 315.9036 0002074  96.7702 263.3664 13.13469090256351
